ONEWEB-0435             
1 51632U 22012L   25170.34474996  .00000501  00000+0  13995-2 0  9999
2 51632  87.8832 108.6401 0002073  91.7317 268.4048 13.10379225161794
ONEWEB-0436             
1 51633U 22012M   25170.46512147 -.00000002  00000+0 -39102-4 0  9992
2 51633  87.9066  78.0571 0002071  83.8643 276.2725 13.17651190165913
ONEWEB-0438             
1 51634U 22012N   25170.55721884 -.00000507  00000+0 -14880-2 0  9997
2 51634  87.8831 108.5989 0001869  75.6144 284.5191 13.10375517161851
ONEWEB-0439             
1 51635U 22012P   25170.56054967 -.00000319  00000+0 -94922-3 0  9997
2 51635  87.8834 108.5857 0001987  80.7982 279.3370 13.10375922161836
ONEWEB-0442             
1 51636U 22012Q   25170.30566102  .00000038  00000+0  65348-4 0  9996
2 51636  87.9077  78.1391 0001896  58.4597 301.6719 13.17649886165880
ONEWEB-0443             
1 51637U 22012R   25170.47693441 -.00000031  00000+0 -11374-3 0  9996
2 51637  87.9070  78.1165 0001590  77.4813 282.6496 13.17648555165956
ONEWEB-0444             
1 51638U 22012S   25170.55058105 -.00000559  00000+0 -16388-2 0  9992
2 51638  87.8827 108.5916 0001917  83.7283 276.4062 13.10373379161848
ONEWEB-0445             
1 51639U 22012T   25170.34310167  .00000418  00000+0  11600-2 0  9993
2 51639  87.8823 108.5868 0002123  74.6569 285.4793 13.10377233161829
